NAVSTAR 48 (USA 151)    
1 26407U 00040A   26171.26496353  .00000022  00000+0  00000+0 0  9990
2 26407  54.8510 215.0400 0120997 302.4995  43.5641  2.00557702190007
NAVSTAR 51 (USA 166)    
1 27663U 03005A   26171.18931948  .00000022  00000+0  00000+0 0  9994
2 27663  54.8817 214.8496 0147955  53.0813  14.3890  2.00560412171378
NAVSTAR 54 (USA 177)    
1 28190U 04009A   26171.39974618 -.00000066  00000+0  00000+0 0  9998
2 28190  54.8268 275.5574 0116273 173.2219 199.2524  2.00554615163016
NAVSTAR 56 (USA 180)    
1 28474U 04045A   26171.33763056 -.00000093  00000+0  00000+0 0  9999
2 28474  55.1338 324.7691 0169871 316.4883  76.0859  2.00556004158493
NAVSTAR 57 (USA 183)    
1 28874U 05038A   26171.32618741 -.00000062  00000+0  00000+0 0  9991
2 28874  54.8753 273.0507 0127903 296.1835  51.9478  2.00565445151892
INMARSAT 4-F2           
1 28899U 05044A   26170.99265009 -.00000268  00000+0  00000+0 0  9990
2 28899   5.0996  43.7044 0002972  35.9627 329.3724  1.00270761 75557
NAVSTAR 58 (USA 190)    
1 29486U 06042A   26171.12285683  .00000065  00000+0  00000+0 0  9992
2 29486  54.7112 151.2224 0106591  54.4858  45.3479  2.00569680144450
NAVSTAR 59 (USA 192)    
1 29601U 06052A   26170.91136060  .00000023  00000+0  00000+0 0  9996
2 29601  54.9346 213.8981 0084895  90.8140 270.2258  2.00558132143469
NAVSTAR 60 (USA 196)    
1 32260U 07047A   26170.71783059 -.00000039  00000+0  00000+0 0  9998
2 32260  54.0970  79.9613 0166853  87.4321 274.4926  2.00555058136867
COSMOS 2433 [GLONASS-M] 
1 32275U 07052A   26169.32339645 -.00000055  00000+0  00000+0 0  9991
2 32275  65.5762 315.8954 0002576 193.7419 166.2393  2.13103991145088
COSMOS 2432 [GLONASS-M] 
1 32276U 07052B   26169.43377550 -.00000056  00000+0  00000+0 0  9992
2 32276  65.5932 316.0195 0007652 331.4172  57.1212  2.13103035145116
NAVSTAR 61 (USA 199)    
1 32384U 07062A   26170.78295955 -.00000058  00000+0  00000+0 0  9993
2 32384  55.0295 274.0483 0035782 165.7534   8.6688  2.00560219135563
COSMOS 2434 [GLONASS-M] 
1 32393U 07065A   26172.51713199  .00000077  00000+0  00000+0 0  9994
2 32393  64.3181 191.7698 0001204 331.4044 208.5317  2.13101233143866
COSMOS 2436 [GLONASS-M] 
1 32395U 07065C   26172.16299959  .00000072  00000+0  00000+0 0  9995
2 32395  64.3269 191.8539 0017273 353.7680  46.7887  2.13100047143817
NAVSTAR 62 (USA 201)    
1 32711U 08012A   26171.12746890  .00000064  00000+0  00000+0 0  9997
2 32711  54.4978 149.8072 0211322 247.8806 109.8414  2.00572494133816
NAVSTAR 64 (USA 206)    
1 35752U 09043A   26170.63033433 -.00000093  00000+0  00000+0 0  9990
2 35752  56.2119  27.3556 0053757  83.3060 287.3304  2.00554110123419
COSMOS 2456 [GLONASS-M] 
1 36111U 09070A   26172.32191416 -.00000053  00000+0  00000+0 0  9990
2 36111  65.0135  70.8309 0004475 334.3318 214.0062  2.13103564128513
COSMOS 2457 [GLONASS-M] 
1 36112U 09070B   26170.28409466 -.00000033  00000+0  00000+0 0  9999
2 36112  64.9980  70.7445 0002927 121.9797  70.3947  2.13101026128472
COSMOS 2460 [GLONASS-M] 
1 36402U 10007C   26172.37328227 -.00000068  00000+0  00000+0 0  9998
2 36402  65.4181 314.3249 0002093 116.2871 240.7895  2.13101449126816
NAVSTAR 65 (USA 213)    
1 36585U 10022A   26170.94663939  .00000030  00000+0  00000+0 0  9998
2 36585  54.2700 208.4508 0126393  66.1309 291.6490  2.00562559117647
BEIDOU-2 IGSO-1         
1 36828U 10036A   26171.91761853 -.00000070  00000+0  00000+0 0  9990
2 36828  54.3041 162.9249 0059141 225.3137 318.8441  1.00270895 58130
BEIDOU-2 G4             
1 37210U 10057A   26172.50531091 -.00000115  00000+0  00000+0 0  9994
2 37210   3.6588  68.9306 0005183 195.6147 347.0523  1.00270792 57337
BEIDOU-2 IGSO-2         
1 37256U 10068A   26170.91319610 -.00000225  00000+0  00000+0 0  9992
2 37256  47.5419 271.7972 0055919 212.8118 220.2454  1.00282229 56828
BEIDOU-2 IGSO-3         
1 37384U 11013A   26169.61194170 -.00000190  00000+0  00000+0 0  9993
2 37384  62.4088  40.1377 0034295 184.6608  10.0015  1.00267082 55679
GSAT-8                  
1 37605U 11022A   26171.18909038  .00000080  00000+0  00000+0 0  9998
2 37605   2.1400  81.7889 0002021 193.7112 116.0490  1.00269263 53244
BEIDOU-2 IGSO-4         
1 37763U 11038A   26170.97170663  .00000022  00000+0  00000+0 0  9996
2 37763  54.6006 165.6472 0159516 231.4774 314.4028  1.00284537 54679
GSAT0101 (GALILEO-PFM)  
1 37846U 11060A   26171.36791132 -.00000096  00000+0  00000+0 0  9999
2 37846  56.9933 341.6747 0002981  53.5460 306.4763  1.70475663 91176
GSAT0102 (GALILEO-FM2)  
1 37847U 11060B   26170.11569855 -.00000094  00000+0  00000+0 0  9995
2 37847  56.9943 341.7092 0003007  14.4392 342.6958  1.70475868 91155
COSMOS 2476 [GLONASS-M] 
1 37867U 11064A   26172.42849314 -.00000052  00000+0  00000+0 0  9992
2 37867  65.2724  72.7282 0022615 238.6992 299.7329  2.13103667113850
COSMOS 2477 [GLONASS-M] 
1 37868U 11064B   26171.26952727 -.00000039  00000+0  00000+0 0  9992
2 37868  65.2782  72.8466 0019648 240.0065 309.6330  2.13102843113825
COSMOS 2475 [GLONASS-M] 
1 37869U 11064C   26172.27141125 -.00000050  00000+0  00000+0 0  9990
2 37869  65.2855  72.8344 0025398 253.0476 300.3064  2.13101681113855
